NORAD_CAT_ID,OBJECT_NAME,OBJECT_TYPE,EPOCH,MEAN_MOTION,ECCENTRICITY,INCLINATION,RA_OF_ASC_NODE,ARG_OF_PERICENTER,MEAN_ANOMALY,BSTAR,MEAN_MOTION_DOT,MEAN_MOTION_DDOT,TLE_LINE0,TLE_LINE1,TLE_LINE2,SEMIMAJOR_AXIS,PERIOD,APOGEE,PERIGEE,DECAYED
54206.0,STARLINK-5264,PAYLOAD,2023-12-09 11:06:34,15.08844189,0.0001209,53.2179,45.59,93.6785,266.4345,-5.6957e-05,-1.194e-05,0.0,0 STARLINK-5264,1 54206U 22141BB  23343.46289699 -.00001194  00000-0 -56957-4 0  9998,2 54206  53.2179  45.5900 0001209  93.6785 266.4345 15.08844189 62511,6917.868,95.437,540.569,538.896,0.0
54206.0,STARLINK-5264,PAYLOAD,2023-12-11 09:12:45,15.0882892,0.0002079,53.2175,36.9688,134.494,225.6223,-8.2052e-05,-1.593e-05,0.0,0 STARLINK-5264,1 54206U 22141BB  23345.38386556 -.00001593  00000-0 -82052-4 0  9999,2 54206  53.2175  36.9688 0002079 134.4940 225.6223 15.08828920 63032,6917.914,95.438,541.217,538.341,0.0
54206.0,STARLINK-5264,PAYLOAD,2023-12-12 10:38:55,15.08844112,0.0001476,53.2171,32.2097,110.5772,249.5379,-1.3458e-05,-5.02e-06,0.0,0 STARLINK-5264,1 54206U 22141BB  23346.44369978 -.00000502  00000-0 -13458-4 0  9999,2 54206  53.2171  32.2097 0001476 110.5772 249.5379 15.08844112 63194,6917.868,95.437,540.754,538.712,0.0
54206.0,STARLINK-5264,PAYLOAD,2023-12-13 10:29:42,15.08843247,0.0001622,53.2177,27.7517,110.0688,250.0479,5.2215e-05,5.43e-06,0.0,0 STARLINK-5264,1 54206U 22141BB  23347.43729605  .00000543  00000-0  52215-4 0  9993,2 54206  53.2177  27.7517 0001622 110.0688 250.0479 15.08843247 63118,6917.87,95.437,540.858,538.613,0.0
54206.0,STARLINK-5264,PAYLOAD,2023-12-14 10:20:30,15.08837823,0.0001939,53.2192,23.2901,59.835,300.2834,3.1896e-05,2.19e-06,0.0,0 STARLINK-5264,1 54206U 22141BB  23348.43090330  .00000219  00000-0  31896-4 0  9992,2 54206  53.2192  23.2901 0001939  59.8350 300.2834 15.08837823 63497,6917.887,95.438,541.093,538.411,0.0
54206.0,STARLINK-5264,PAYLOAD,2023-12-15 08:35:53,15.08840337,0.0001931,53.2188,19.1292,68.0759,292.0438,-1.6949e-05,-5.58e-06,0.0,0 STARLINK-5264,1 54206U 22141BB  23349.35826351 -.00000558  00000-0 -16949-4 0  9994,2 54206  53.2188  19.1292 0001931  68.0759 292.0438 15.08840337 63409,6917.879,95.438,541.08,538.409,0.0
54206.0,STARLINK-5264,PAYLOAD,2023-12-16 08:26:41,15.08836118,0.0001583,53.2173,14.6714,86.8269,273.2904,-2.5845e-05,-6.99e-06,0.0,0 STARLINK-5264,1 54206U 22141BB  23350.35186639 -.00000699  00000-0 -25845-4 0  9995,2 54206  53.2173  14.6714 0001583  86.8269 273.2904 15.08836118 63781,6917.892,95.438,540.852,538.662,0.0
54206.0,STARLINK-5264,PAYLOAD,2023-12-17 08:17:28,15.08835066,0.0001702,53.2183,10.2102,108.191,251.9267,6.5587e-06,-1.84e-06,0.0,0 STARLINK-5264,1 54206U 22141BB  23351.34546696 -.00000184  00000-0  65587-5 0  9994,2 54206  53.2183  10.2102 0001702 108.1910 251.9267 15.08835066 63707,6917.895,95.438,540.938,538.583,0.0
54206.0,STARLINK-5264,PAYLOAD,2023-12-17 22:35:56,15.08840182,0.0001547,53.218,7.5319,101.6052,258.5113,4.8194e-05,4.79e-06,0.0,0 STARLINK-5264,1 54206U 22141BB  23351.94162310  .00000479  00000-0  48194-4 0  9997,2 54206  53.2180   7.5319 0001547 101.6052 258.5113 15.08840182 64029,6917.88,95.438,540.815,538.675,0.0
54206.0,STARLINK-5264,PAYLOAD,2023-12-18 08:08:14,15.08850356,0.0001744,53.2185,5.7508,112.5451,247.5726,0.00012832,1.755e-05,0.0,0 STARLINK-5264,1 54206U 22141BB  23352.33905226  .00001755  00000-0  12832-3 0  9999,2 54206  53.2185   5.7508 0001744 112.5451 247.5726 15.08850356 64085,6917.849,95.437,540.92,538.507,0.0
54206.0,STARLINK-5264,PAYLOAD,2023-12-18 22:26:43,15.0883334,0.0001911,53.2191,3.0776,124.9187,235.1985,1.0781e-06,-2.71e-06,0.0,0 STARLINK-5264,1 54206U 22141BB  23352.93522688 -.00000271  00000-0  10781-5 0  9998,2 54206  53.2191   3.0776 0001911 124.9187 235.1985 15.08833340 64173,6917.901,95.438,541.088,538.444,0.0
54206.0,STARLINK-5264,PAYLOAD,2023-12-19 07:59:03,15.08825055,0.0001578,53.2183,1.2888,112.5464,247.5695,-6.4414e-05,-1.313e-05,0.0,0 STARLINK-5264,1 54206U 22141BB  23353.33267706 -.00001313  00000-0 -64414-4 0  9990,2 54206  53.2183   1.2888 0001578 112.5464 247.5695 15.08825055 64234,6917.926,95.438,540.883,538.699,0.0
54206.0,STARLINK-5264,PAYLOAD,2023-12-20 07:49:50,15.08838547,0.0001463,53.218,356.8282,101.6783,258.4374,-8.0519e-05,-1.569e-05,0.0,0 STARLINK-5264,1 54206U 22141BB  23354.32627492 -.00001569  00000-0 -80519-4 0  9999,2 54206  53.2180 356.8282 0001463 101.6783 258.4374 15.08838547 64385,6917.885,95.438,540.762,538.738,0.0
54206.0,STARLINK-5264,PAYLOAD,2023-12-21 06:05:12,15.08845289,0.0002255,53.2181,352.6638,53.2622,306.8577,0.0002143,3.124e-05,0.0,0 STARLINK-5264,1 54206U 22141BB  23355.25362139  .00003124  00000-0  21430-3 0  9999,2 54206  53.2181 352.6638 0002255  53.2622 306.8577 15.08845289 64529,6917.864,95.437,541.289,538.169,0.0
54206.0,STARLINK-5264,PAYLOAD,2023-12-22 04:20:37,15.08838858,0.000137,53.2183,348.4959,133.307,226.8037,-7.1487e-06,-4.02e-06,0.0,0 STARLINK-5264,1 54206U 22141BB  23356.18098816 -.00000402  00000-0 -71487-5 0  9997,2 54206  53.2183 348.4959 0001370 133.3070 226.8037 15.08838858 64665,6917.884,95.438,540.697,538.801,0.0
54206.0,STARLINK-5264,PAYLOAD,2023-12-22 05:56:00,15.0884124,0.0002273,53.2175,348.196,167.8761,192.2286,-6.0468e-05,-1.251e-05,0.0,0 STARLINK-5264,1 54206U 22141BB  23356.24722399 -.00001251  00000-0 -60468-4 0  9993,2 54206  53.2175 348.1960 0002273 167.8761 192.2286 15.08841240 64444,6917.877,95.437,541.314,538.169,0.0
54206.0,STARLINK-5264,PAYLOAD,2023-12-23 08:57:34,15.08848781,0.0001426,53.2193,343.1375,81.8554,278.26,-0.00023088,-3.961e-05,0.0,0 STARLINK-5264,1 54206U 22141BB  23357.37331371 -.00003961  00000-0 -23088-3 0  9990,2 54206  53.2193 343.1375 0001426  81.8554 278.2600 15.08848781 64849,6917.854,95.437,540.705,538.732,0.0
54206.0,STARLINK-5264,PAYLOAD,2023-12-24 04:02:11,15.08815455,0.0001001,53.2186,339.569,116.3125,243.797,0.00035257,5.324e-05,0.0,0 STARLINK-5264,1 54206U 22141BB  23358.16819034  .00005324  00000-0  35257-3 0  9999,2 54206  53.2186 339.5690 0001001 116.3125 243.7970 15.08815455 64969,6917.955,95.439,540.513,539.128,0.0
54206.0,STARLINK-5264,PAYLOAD,2023-12-24 08:48:20,15.0883796,9.39e-05,53.2178,338.679,81.6896,278.4203,0.00010998,1.463e-05,0.0,0 STARLINK-5264,1 54206U 22141BB  23358.36690935  .00001463  00000-0  10998-3 0  9993,2 54206  53.2178 338.6790 0000939  81.6896 278.4203 15.08837960 64991,6917.887,95.438,540.401,539.102,0.0
54206.0,STARLINK-5264,PAYLOAD,2023-12-25 08:39:08,15.08839654,0.0001322,53.2181,334.2189,94.3373,265.777,4.5295e-05,4.33e-06,0.0,0 STARLINK-5264,1 54206U 22141BB  23359.36051477  .00000433  00000-0  45295-4 0  9991,2 54206  53.2181 334.2189 0001322  94.3373 265.7770 15.08839654 64919,6917.881,95.438,540.661,538.832,0.0
54206.0,STARLINK-5264,PAYLOAD,2023-12-25 21:22:14,15.08823342,0.0001716,53.2181,331.8342,139.2587,220.8534,-9.0154e-05,-1.722e-05,0.0,0 STARLINK-5264,1 54206U 22141BB  23359.89045047 -.00001722  00000-0 -90154-4 0  9993,2 54206  53.2181 331.8342 0001716 139.2587 220.8534 15.08823342 64991,6917.931,95.439,540.983,538.609,0.0
54206.0,STARLINK-5264,PAYLOAD,2023-12-26 03:43:47,15.08835489,0.0001385,53.2174,330.6572,85.3616,274.7534,-6.4783e-05,-1.319e-05,0.0,0 STARLINK-5264,1 54206U 22141BB  23360.15540527 -.00001319  00000-0 -64783-4 0  9998,2 54206  53.2174 330.6572 0001385  85.3616 274.7534 15.08835489 65265,6917.894,95.438,540.717,538.801,0.0
54206.0,STARLINK-5264,PAYLOAD,2023-12-26 08:29:56,15.08837322,0.0001414,53.2178,329.7601,87.9157,272.1997,-4.3897e-05,-9.86e-06,0.0,0 STARLINK-5264,1 54206U 22141BB  23360.35412334 -.00000986  00000-0 -43897-4 0  9996,2 54206  53.2178 329.7601 0001414  87.9157 272.1997 15.08837322 65063,6917.889,95.438,540.732,538.775,0.0
54206.0,STARLINK-5264,PAYLOAD,2023-12-27 03:34:33,15.08839367,0.0001544,53.2176,326.195,88.0347,272.0822,9.627e-06,-1.35e-06,0.0,0 STARLINK-5264,1 54206U 22141BB  23361.14900208 -.00000135  00000-0  96270-5 0  9995,2 54206  53.2176 326.1950 0001544  88.0347 272.0822 15.08839367 65412,6917.882,95.438,540.815,538.679,0.0
54206.0,STARLINK-5264,PAYLOAD,2023-12-27 05:09:56,15.08844757,0.0001587,53.2177,325.8944,90.8115,269.3059,4.4815e-05,4.25e-06,0.0,0 STARLINK-5264,1 54206U 22141BB  23361.21523712  .00000425  00000-0  44815-4 0  9992,2 54206  53.2177 325.8944 0001587  90.8115 269.3059 15.08844757 65198,6917.866,95.437,540.829,538.633,0.0
54206.0,STARLINK-5264,PAYLOAD,2023-12-28 03:25:21,15.08830477,0.0001728,53.2188,321.7393,105.8659,254.2524,9.3103e-05,1.194e-05,0.0,0 STARLINK-5264,1 54206U 22141BB  23362.14260554  .00001194  00000-0  93103-4 0  9995,2 54206  53.2188 321.7393 0001728 105.8659 254.2524 15.08830477 65565,6917.909,95.438,540.97,538.579,0.0
54206.0,STARLINK-5264,PAYLOAD,2023-12-28 06:36:07,15.08840849,0.0001547,53.2179,321.14,90.03,270.0869,5.5389e-05,5.94e-06,0.0,0 STARLINK-5264,1 54206U 22141BB  23362.27508121  .00000594  00000-0  55389-4 0  9991,2 54206  53.2179 321.1400 0001547  90.0300 270.0869 15.08840849 65354,6917.878,95.438,540.813,538.673,0.0
54206.0,STARLINK-5264,PAYLOAD,2023-12-29 03:16:08,15.08841053,0.0001769,53.2194,317.2697,78.0951,282.024,-3.1169e-05,-7.84e-06,0.0,0 STARLINK-5264,1 54206U 22141BB  23363.13620555 -.00000784  00000-0 -31169-4 0  9996,2 54206  53.2194 317.2697 0001769  78.0951 282.0240 15.08841053 65713,6917.877,95.437,540.966,538.518,0.0
54206.0,STARLINK-5264,PAYLOAD,2023-12-29 06:26:53,15.08847803,0.0001722,53.2192,316.672,88.1387,271.9803,4.3724e-06,-2.19e-06,0.0,0 STARLINK-5264,1 54206U 22141BB  23363.26867845 -.00000219  00000-0  43724-5 0  9998,2 54206  53.2192 316.6720 0001722  88.1387 271.9803 15.08847803 65738,6917.857,95.437,540.913,538.53,0.0
54206.0,STARLINK-5264,PAYLOAD,2023-12-30 03:06:55,15.08840753,0.000186,53.2196,312.8072,85.2446,274.8759,-4.0473e-06,-3.53e-06,0.0,0 STARLINK-5264,1 54206U 22141BB  23364.12980374 -.00000353  00000-0 -40473-5 0  9995,2 54206  53.2196 312.8072 0001860  85.2446 274.8759 15.08840753 65860,6917.878,95.438,541.03,538.456,0.0
